SatCatId,ObjectName,LaunchYear,OrbitalPeriod,LaunchMass,StatusCode,Inclination,Status,UcsData,OrbitClassEstimated,LaunchSiteCountry,Owner,UseType,Purpose,LaunchVehicleClass,TLE1,TLE2,MeanMotion,Eccentricity,OrbitClass
57369,STARLINK-6168,2023,95.71,-1.0,+,43.0,Active,0,LEO,USA,USA,Unknown,Unknown,Unknown,1 57369U 23099AT  23276.39998944 -.00001058  00000+0 -59803-4 0  9992,2 57369  43.0003  22.7498 0001118 290.5142  69.5581 15.04489825 12641,15.04489825,0.0001118,LEO
57370,STARLINK-5353,2023,95.71,-1.0,+,43.0,Active,0,LEO,USA,USA,Unknown,Unknown,Unknown,1 57370U 23099AU  23276.57974380 -.00001558  00000+0 -94878-4 0  9998,2 57370  43.0018  21.5182 0001517 258.7491 101.3182 15.04493402 12673,15.04493402,0.0001517,LEO
57371,STARLINK-6032,2023,95.71,-1.0,+,43.0,Active,0,LEO,USA,USA,Unknown,Unknown,Unknown,1 57371U 23099AV  23276.59179681 -.00000034  00000+0  12203-4 0  9991,2 57371  42.9999  21.6083 0001392 288.1190  71.9501 15.04490736 12679,15.04490736,0.0001392,LEO
57372,STARLINK-5975,2023,95.75,-1.0,+,43.0,Active,0,LEO,USA,USA,Unknown,Unknown,Unknown,1 57372U 23099AW  23276.57131666 -.00094439  00000+0 -68577-2 0  9997,2 57372  43.0013  21.4472 0000501 146.6566 213.4309 15.03683189 13209,15.03683189,5.01e-05,LEO
57373,STARLINK-6370,2023,95.71,-1.0,+,43.0,Active,0,LEO,USA,USA,Unknown,Unknown,Unknown,1 57373U 23099AX  23276.58323880  .00000215  00000+0  29679-4 0  9999,2 57373  42.9999  21.5453 0000805 279.3768  80.6984 15.04493749 12671,15.04493749,8.05e-05,LEO
57374,STARLINK-6369,2023,93.72,-1.0,+,43.0,Active,0,LEO,USA,USA,Unknown,Unknown,Unknown,1 57374U 23099AY  23276.58334491 -.00915326  00000+0 -27617-1 0  9997,2 57374  42.9997  11.5515 0001322 288.1446 236.1434 15.36270731  5796,15.36270731,0.0001322,LEO
57375,STARLINK-6363,2023,95.72,-1.0,+,43.0,Active,0,LEO,USA,USA,Unknown,Unknown,Unknown,1 57375U 23099AZ  23276.44486399 -.00025638  00000+0 -18036-2 0  9992,2 57375  43.0017  22.2260 0002169 240.8438 119.2188 15.04279659 13399,15.04279659,0.0002169,LEO
57376,STARLINK-6367,2023,95.84,-1.0,+,43.0,Active,0,LEO,USA,USA,Unknown,Unknown,Unknown,1 57376U 23099BA  23276.58334491 -.00048092  00000+0 -35676-2 0  9991,2 57376  43.0003  21.3438 0001286 277.5842 167.8922 15.02555519  5955,15.02555519,0.0001286,LEO
57377,STARLINK-6358,2023,95.71,-1.0,+,43.0,Active,0,LEO,USA,USA,Unknown,Unknown,Unknown,1 57377U 23099BB  23276.44045638 -.00001565  00000+0 -95383-4 0  9996,2 57377  43.0001  22.1926 0001069 257.0235 103.0488 15.04498289 13391,15.04498289,0.0001069,LEO
57378,STARLINK-6364,2023,91.64,-1.0,+,43.0,Active,0,LEO,USA,USA,Unknown,Unknown,Unknown,1 57378U 23099BC  23276.53348630  .00002543  00000+0  22830-4 0  9997,2 57378  43.0008   8.9077 0001602 263.4693  96.5992 15.71355038 13552,15.71355038,0.0001602,LEO
57379,STARLINK-6361,2023,95.71,-1.0,+,43.0,Active,0,LEO,USA,USA,Unknown,Unknown,Unknown,1 57379U 23099BD  23276.43667693 -.00000636  00000+0 -30103-4 0  9995,2 57379  43.0007  22.1662 0000763 295.7091  64.3673 15.04491735 13399,15.04491735,7.63e-05,LEO
57380,STARLINK-6366,2023,91.64,-1.0,+,43.0,Active,0,LEO,USA,USA,Unknown,Unknown,Unknown,1 57380U 23099BE  23276.53337853  .00002493  00000+0  22448-4 0  9994,2 57380  43.0003   8.9065 0001793 254.6457 105.4213 15.71359514 13546,15.71359514,0.0001793,LEO
57381,STARLINK-6371,2023,93.6,-1.0,+,43.0,Active,0,LEO,USA,USA,Unknown,Unknown,Unknown,1 57381U 23099BF  23276.58334491 -.00913969  00000+0 -25779-1 0  9993,2 57381  43.0005  11.4417 0001238 269.4016 300.0228 15.38329842  6149,15.38329842,0.0001238,LEO
57386,STARLING 4,2023,96.11,-1.0,+,99.47,Active,0,LEO,New Zealand,USA,Unknown,Unknown,Unknown,1 57386U 23100A   23276.64369495  .00003458  00000+0  29676-3 0  9993,2 57386  99.4670  58.3283 0014607  37.5611 322.6624 14.98318081 11613,14.98318081,0.0014607,LEO
57387,STARLING 2,2023,96.11,-1.0,+,99.47,Active,0,LEO,New Zealand,USA,Unknown,Unknown,Unknown,1 57387U 23100B   23276.37688852  .00003054  00000+0  26285-3 0  9990,2 57387  99.4674  58.0063 0014606  38.4561 321.7694 14.98338533 11570,14.98338533,0.0014606,LEO
57388,STARLING 1,2023,96.1,-1.0,+,99.48,Active,0,LEO,New Zealand,USA,Unknown,Unknown,Unknown,1 57388U 23100C   23276.43810900  .00003492  00000+0  29929-3 0  9993,2 57388  99.4751  58.1576 0003052 159.8425 200.2913 14.98427802 11581,14.98427802,0.0003052,LEO
57389,STARLING 3,2023,96.11,-1.0,+,99.47,Active,0,LEO,New Zealand,USA,Unknown,Unknown,Unknown,1 57389U 23100D   23276.37680252  .00003124  00000+0  26877-3 0  9993,2 57389  99.4674  58.0061 0014631  38.6183 321.6077 14.98325967 11571,14.98325967,0.0014631,LEO
57390,LEMUR-2-MANO,2023,96.04,-1.0,+,99.47,Active,0,LEO,New Zealand,USA,Unknown,Unknown,Unknown,1 57390U 23100E   23276.34347207  .00012238  00000+0  10036-2 0  9997,2 57390  99.4718  58.0921 0016637  42.9764 317.2749 14.99339248 11573,14.99339248,0.0016637,LEO
57391,LEMUR-2-DEVERILL-M-T,2023,96.02,-1.0,+,99.47,Active,0,LEO,New Zealand,USA,Unknown,Unknown,Unknown,1 57391U 23100F   23276.38752228  .00010792  00000+0  87862-3 0  9990,2 57391  99.4696  58.2429 0012599  40.2128 320.0019 14.99710708 11589,14.99710708,0.0012599,LEO
57392,LEO 3,2023,105.27,-1.0,+,99.45,Active,0,LEO,New Zealand,Canada,Unknown,Unknown,Unknown,1 57392U 23100G   23276.61887134  .00000029  00000+0  85099-4 0  9995,2 57392  99.4515  40.2642 0017493  46.1476 314.1112 13.67893958 10598,13.67893958,0.0017493,LEO
57399,TIANMU-1 07,2023,95.13,-1.0,+,97.4,Active,0,LEO,PRC,China,Unknown,Unknown,Unknown,1 57399U 23101A   23276.57182697  .00006719  00000+0  37634-3 0  9993,2 57399  97.4012 336.0537 0005120  23.2440 336.9022 15.13723587 11412,15.13723587,0.000512,LEO
57400,TIANMU-1 08,2023,95.13,-1.0,+,97.4,Active,0,LEO,PRC,China,Unknown,Unknown,Unknown,1 57400U 23101B   23276.53964871  .00006297  00000+0  35288-3 0  9998,2 57400  97.3998 335.9352 0007649  18.7965 341.3547 15.13719574 11401,15.13719574,0.0007649,LEO
57401,TIANMU-1 09,2023,95.13,-1.0,+,97.4,Active,0,LEO,PRC,China,Unknown,Unknown,Unknown,1 57401U 23101C   23276.52280224  .00007361  00000+0  41154-3 0  9993,2 57401  97.3953 335.9122 0008046  13.4098 346.7346 15.13742606 11407,15.13742606,0.0008046,LEO
57402,TIANMU-1 10,2023,95.13,-1.0,+,97.4,Active,0,LEO,PRC,China,Unknown,Unknown,Unknown,1 57402U 23101D   23276.55674912  .00006290  00000+0  35201-3 0  9994,2 57402  97.4035 335.9471 0010453  12.7160 347.4334 15.13747329 11406,15.13747329,0.0010453,LEO
57404,STARLINK-30240,2023,95.84,-1.0,+,43.0,Active,0,LEO,USA,USA,Unknown,Unknown,Unknown,1 57404U 23102A   23276.61279903  .00021397  00000+0  15942-2 0  9999,2 57404  43.0039  34.6801 0001590 288.4028  71.6641 15.02535541 12649,15.02535541,0.000159,LEO
57405,STARLINK-30192,2023,95.84,-1.0,+,43.0,Active,0,LEO,USA,USA,Unknown,Unknown,Unknown,1 57405U 23102B   23276.60947723  .00013335  00000+0  10000-2 0  9994,2 57405  43.0015  34.6544 0001196 312.8395  47.2346 15.02547915 12648,15.02547915,0.0001196,LEO
57406,STARLINK-30195,2023,95.84,-1.0,+,43.0,Active,0,LEO,USA,USA,Unknown,Unknown,Unknown,1 57406U 23102C   23276.60728314  .00046056  00000+0  34036-2 0  9999,2 57406  43.0040  34.6376 0001346 254.8353 105.2341 15.02519242 12648,15.02519242,0.0001346,LEO
57407,STARLINK-30207,2023,95.09,-1.0,+,43.0,Active,0,LEO,USA,USA,Unknown,Unknown,Unknown,1 57407U 23102D   23276.59504240  .00059007  00000+0  31456-2 0  9991,2 57407  43.0029  24.1655 0001010 234.4263 125.6490 15.14374677 12760,15.14374677,0.000101,LEO
57408,STARLINK-30205,2023,95.84,-1.0,+,43.0,Active,0,LEO,USA,USA,Unknown,Unknown,Unknown,1 57408U 23102E   23276.59615098  .00028722  00000+0  21322-2 0  9997,2 57408  43.0029  34.5559 0000858 278.5432  81.5313 15.02542342 12649,15.02542342,8.58e-05,LEO
57409,STARLINK-30222,2023,95.79,-1.0,+,43.0,Active,0,LEO,USA,USA,Unknown,Unknown,Unknown,1 57409U 23102F   23276.45723468  .00025743  00000+0  18723-2 0  9995,2 57409  43.0022  35.2347 0002439 285.2502  74.8071 15.03360848 12620,15.03360848,0.0002439,LEO
57410,STARLINK-30172,2023,95.84,-1.0,+,43.0,Active,0,LEO,USA,USA,Unknown,Unknown,Unknown,1 57410U 23102G   23276.59282799  .00002219  00000+0  17927-3 0  9998,2 57410  42.9994  34.5260 0000559 280.6421  79.4358 15.02539803 12643,15.02539803,5.59e-05,LEO
57411,STARLINK-30214,2023,95.84,-1.0,+,43.0,Active,0,LEO,USA,USA,Unknown,Unknown,Unknown,1 57411U 23102H   23276.62823148  .00017827  00000+0  13307-2 0  9990,2 57411  43.0025  33.9473 0001463 306.6195  53.4512 15.02554770 12602,15.0255477,0.0001463,LEO
57412,STARLINK-30182,2023,95.84,-1.0,+,43.0,Active,0,LEO,USA,USA,Unknown,Unknown,Unknown,1 57412U 23102J   23276.19063140 -.00001313  00000+0 -82175-4 0  9997,2 57412  43.0030  36.6719 0001302 275.3157  84.7537 15.02528658 12581,15.02528658,0.0001302,LEO
57413,STARLINK-30191,2023,95.84,-1.0,+,43.0,Active,0,LEO,USA,USA,Unknown,Unknown,Unknown,1 57413U 23102K   23276.38007812 -.00000404  00000+0 -14821-4 0  9996,2 57413  43.0035  35.5148 0001348 274.0196  86.0492 15.02527756 12617,15.02527756,0.0001348,LEO
57414,STARLINK-30193,2023,95.84,-1.0,+,43.0,Active,0,LEO,USA,USA,Unknown,Unknown,Unknown,1 57414U 23102L   23276.58334491 -.00039688  00000+0 -29392-2 0  9998,2 57414  43.0015  34.4548 0001322 262.2255 100.5701 15.02540210 12643,15.0254021,0.0001322,LEO
57415,STARLINK-30208,2023,95.84,-1.0,+,43.0,Active,0,LEO,USA,USA,Unknown,Unknown,Unknown,1 57415U 23102M   23276.44322781  .00019495  00000+0  14541-2 0  9995,2 57415  43.0031  35.1282 0001000 278.8228  81.2501 15.02539016 12411,15.02539016,0.0001,LEO
57416,STARLINK-30224,2023,95.84,-1.0,+,43.0,Active,0,LEO,USA,USA,Unknown,Unknown,Unknown,1 57416U 23102N   23276.63932773  .00019405  00000+0  14468-2 0  9994,2 57416  43.0019  34.0191 0001265 309.6991  50.3740 15.02557123 12655,15.02557123,0.0001265,LEO
57417,STARLINK-30043,2023,95.84,-1.0,+,43.0,Active,0,LEO,USA,USA,Unknown,Unknown,Unknown,1 57417U 23102P   23276.63267209  .00018246  00000+0  13617-2 0  9997,2 57417  43.0033  33.9702 0001440 298.2664  61.8033 15.02552139 12657,15.02552139,0.000144,LEO
